{
  "type": "FeatureCollection",
  "features": [
    {
      "type": "Feature",
      "properties": {
        "norad_id": 31307,
        "name": "GALAXY 17 (G-17)",
        "group": "intelsat",
        "lat": -2.43511923016728,
        "lon": -21.406673052351138,
        "alt_km": 35786.49734332451,
        "timestamp": "2025-12-14T22:38:40.426916+00:00",
        "meta_object_name": "GALAXY 17 (G-17)",
        "meta_object_id": "2007-016B",
        "meta_epoch": "2025-12-14T06:09:54.145152",
        "meta_mean_motion": 1.00272374,
        "meta_eccentricity": 0.0005704,
        "meta_inclination": 2.504,
        "meta_ra_of_asc_node": 82.2687,
        "meta_arg_of_pericenter": 165.7002,
        "meta_mean_anomaly": 202.7064,
        "meta_ephemeris_type": 0,
        "meta_classification_type": "U",
        "meta_norad_cat_id": 31307,
        "meta_element_set_no": 999,
        "meta_rev_at_epoch": 6795,
        "meta_bstar": 0,
        "meta_mean_motion_dot": -1.89e-06,
        "meta_mean_motion_ddot": 0,
        "tle_line1": "1 31307U 07016B   25348.25687668 -.00000189  00000+0  00000+0 0  9995",
        "tle_line2": "2 31307   2.5040  82.2687 0005704 165.7002 202.7064  1.00272374 67951"
      },
      "geometry": {
        "type": "Point",
        "coordinates": [
          -21.406673052351138,
          -2.43511923016728
        ]
      }
    },
    {
      "type": "Feature",
      "properties": {
        "norad_id": 31862,
        "name": "DIRECTV 10",
        "group": "intelsat",
        "lat": 0.00033340752290956626,
        "lon": -39.28829839260475,
        "alt_km": 35786.60916405395,
        "timestamp": "2025-12-14T22:38:40.426927+00:00",
        "meta_object_name": "DIRECTV 10",
        "meta_object_id": "2007-032A",
        "meta_epoch": "2025-12-14T07:45:38.704032",
        "meta_mean_motion": 1.0026671,
        "meta_eccentricity": 2.184e-05,
        "meta_inclination": 0.0031,
        "meta_ra_of_asc_node": 235.7544,
        "meta_arg_of_pericenter": 75.044,
        "meta_mean_anomaly": 146.0659,
        "meta_ephemeris_type": 0,
        "meta_classification_type": "U",
        "meta_norad_cat_id": 31862,
        "meta_element_set_no": 999,
        "meta_rev_at_epoch": 4374,
        "meta_bstar": 0,
        "meta_mean_motion_dot": -8.4e-07,
        "meta_mean_motion_ddot": 0,
        "tle_line1": "1 31862U 07032A   25348.32336463 -.00000084  00000+0  00000+0 0  9995",
        "tle_line2": "2 31862   0.0031 235.7544 0000218  75.0440 146.0659  1.00266710 43749"
      },
      "geometry": {
        "type": "Point",
        "coordinates": [
          -39.28829839260475,
          0.00033340752290956626
        ]
      }
    },
    {
      "type": "Feature",
      "properties": {
        "norad_id": 32253,
        "name": "INTELSAT 11 (IS-11)",
        "group": "intelsat",
        "lat": -1.0032297502791818,
        "lon": -80.47835013955769,
        "alt_km": 36100.51372130035,
        "timestamp": "2025-12-14T22:38:40.426939+00:00",
        "meta_object_name": "INTELSAT 11 (IS-11)",
        "meta_object_id": "2007-044B",
        "meta_epoch": "2025-12-14T05:54:03.162816",
        "meta_mean_motion": 0.99049597,
        "meta_eccentricity": 0.00087663,
        "meta_inclination": 3.0842,
        "meta_ra_of_asc_node": 80.9604,
        "meta_arg_of_pericenter": 166.5539,
        "meta_mean_anomaly": 143.2111,
        "meta_ephemeris_type": 0,
        "meta_classification_type": "U",
        "meta_norad_cat_id": 32253,
        "meta_element_set_no": 999,
        "meta_rev_at_epoch": 6661,
        "meta_bstar": 0,
        "meta_mean_motion_dot": 7e-07,
        "meta_mean_motion_ddot": 0,
        "tle_line1": "1 32253U 07044B   25348.24586994  .00000070  00000+0  00000+0 0  9994",
        "tle_line2": "2 32253   3.0842  80.9604 0008766 166.5539 143.2111  0.99049597 66617"
      },
      "geometry": {
        "type": "Point",
        "coordinates": [
          -80.47835013955769,
          -1.0032297502791818
        ]
      }
    },
    {
      "type": "Feature",
      "properties": {
        "norad_id": 32388,
        "name": "HORIZONS-2",
        "group": "intelsat",
        "lat": -2.119526304505374,
        "lon": -10.24896452569146,
        "alt_km": 35781.91974090772,
        "timestamp": "2025-12-14T22:38:40.426951+00:00",
        "meta_object_name": "HORIZONS-2",
        "meta_object_id": "2007-063B",
        "meta_epoch": "2025-12-14T04:30:26.171424",
        "meta_mean_motion": 1.00269526,
        "meta_eccentricity": 0.00048318,
        "meta_inclination": 2.1253,
        "meta_ra_of_asc_node": 82.9462,
        "meta_arg_of_pericenter": 191.4869,
        "meta_mean_anomaly": 162.4752,
        "meta_ephemeris_type": 0,
        "meta_classification_type": "U",
        "meta_norad_cat_id": 32388,
        "meta_element_set_no": 999,
        "meta_rev_at_epoch": 6595,
        "meta_bstar": 0,
        "meta_mean_motion_dot": -2.36e-06,
        "meta_mean_motion_ddot": 0,
        "tle_line1": "1 32388U 07063B   25348.18780291 -.00000236  00000+0  00000+0 0  9998",
        "tle_line2": "2 32388   2.1253  82.9462 0004831 191.4869 162.4752  1.00269526 65957"
      },
      "geometry": {
        "type": "Point",
        "coordinates": [
          -10.24896452569146,
          -2.119526304505374
        ]
      }
    },
    {
      "type": "Feature",
      "properties": {
        "norad_id": 32729,
        "name": "DIRECTV 11",
        "group": "intelsat",
        "lat": 0.01650128886079378,
        "lon": -35.6720190302334,
        "alt_km": 35787.35937029537,
        "timestamp": "2025-12-14T22:38:40.426963+00:00",
        "meta_object_name": "DIRECTV 11",
        "meta_object_id": "2008-013A",
        "meta_epoch": "2025-12-14T06:05:54.526848",
        "meta_mean_motion": 1.00271695,
        "meta_eccentricity": 3.514e-05,
        "meta_inclination": 0.0409,
        "meta_ra_of_asc_node": 171.7906,
        "meta_arg_of_pericenter": 5.3451,
        "meta_mean_anomaly": 258.3297,
        "meta_ephemeris_type": 0,
        "meta_classification_type": "U",
        "meta_norad_cat_id": 32729,
        "meta_element_set_no": 999,
        "meta_rev_at_epoch": 4373,
        "meta_bstar": 0,
        "meta_mean_motion_dot": -1.08e-06,
        "meta_mean_motion_ddot": 0,
        "tle_line1": "1 32729U 08013A   25348.25410332 -.00000108  00000+0  00000+0 0  9995",
        "tle_line2": "2 32729   0.0409 171.7906 0000351   5.3451 258.3297  1.00271695 43730"
      },
      "geometry": {
        "type": "Point",
        "coordinates": [
          -35.6720190302334,
          0.01650128886079378
        ]
      }
    },
    {
      "type": "Feature",
      "properties": {
        "norad_id": 32951,
        "name": "GALAXY 18 (G-18)",
        "group": "intelsat",
        "lat": -0.029757795945978174,
        "lon": -59.49189848603868,
        "alt_km": 35775.866728651825,
        "timestamp": "2025-12-14T22:38:40.426974+00:00",
        "meta_object_name": "GALAXY 18 (G-18)",
        "meta_object_id": "2008-024A",
        "meta_epoch": "2025-12-14T05:09:09.326592",
        "meta_mean_motion": 1.00270892,
        "meta_eccentricity": 0.00028568,
        "meta_inclination": 0.0216,
        "meta_ra_of_asc_node": 351.0827,
        "meta_arg_of_pericenter": 279.093,
        "meta_mean_anomaly": 127.2301,
        "meta_ephemeris_type": 0,
        "meta_classification_type": "U",
        "meta_norad_cat_id": 32951,
        "meta_element_set_no": 999,
        "meta_rev_at_epoch": 4399,
        "meta_bstar": 0,
        "meta_mean_motion_dot": 0,
        "meta_mean_motion_ddot": 0,
        "tle_line1": "1 32951U 08024A   25348.21469128  .00000000  00000+0  00000+0 0  9997",
        "tle_line2": "2 32951   0.0216 351.0827 0002856 279.0930 127.2301  1.00270892 43998"
      },
      "geometry": {
        "type": "Point",
        "coordinates": [
          -59.49189848603868,
          -0.029757795945978174
        ]
      }
    },
    {
      "type": "Feature",
      "properties": {
        "norad_id": 33153,
        "name": "INTELSAT 25 (IS-25)",
        "group": "intelsat",
        "lat": -1.7067612971962682,
        "lon": 32.088783910837364,
        "alt_km": 35799.29426102795,
        "timestamp": "2025-12-14T22:38:40.426986+00:00",
        "meta_object_name": "INTELSAT 25 (IS-25)",
        "meta_object_id": "2008-034A",
        "meta_epoch": "2025-12-14T06:25:15.175200",
        "meta_mean_motion": 1.00271631,
        "meta_eccentricity": 0.0004922,
        "meta_inclination": 2.2317,
        "meta_ra_of_asc_node": 82.634,
        "meta_arg_of_pericenter": 181.2545,
        "meta_mean_anomaly": 244.121,
        "meta_ephemeris_type": 0,
        "meta_classification_type": "U",
        "meta_norad_cat_id": 33153,
        "meta_element_set_no": 999,
        "meta_rev_at_epoch": 6384,
        "meta_bstar": 0,
        "meta_mean_motion_dot": -2.07e-06,
        "meta_mean_motion_ddot": 0,
        "tle_line1": "1 33153U 08034A   25348.26753675 -.00000207  00000+0  00000+0 0  9991",
        "tle_line2": "2 33153   2.2317  82.6340 0004922 181.2545 244.1210  1.00271631 63844"
      },
      "geometry": {
        "type": "Point",
        "coordinates": [
          32.088783910837364,
          -1.7067612971962682
        ]
      }
    }
  ]
}